MEAN_MOTION;ECCENTRICITY;INCLINATION;RA_OF_ASC_NODE;ARG_OF_PERICENTER;MEAN_ANOMALY;BSTAR;MEAN_MOTION_DOT;MEAN_MOTION_DDOT;TYPE
14.3421703;0.0002265;86.401;21.1197;69.9147;290.2293;1.7967E-5;7.0E-7;0;Iridium
14.34217085;0.0002241;86.4011;20.8866;69.7192;290.4244;1.7205E-5;6.8E-7;0;Iridium
14.34217085;0.0002241;86.4011;20.8866;69.7192;290.4244;1.7205E-5;6.8E-7;0;Iridium
14.34217082;0.0002225;86.4011;20.6827;69.7745;290.369;1.4171E-5;5.9E-7;0;Iridium
14.34217202;0.000221;86.4012;20.4788;69.489;290.6543;1.6458E-5;6.6E-7;0;Iridium
14.34217213;0.0002203;86.4012;20.2749;69.3369;290.8063;1.387E-5;5.9E-7;0;Iridium
14.34217224;0.0002192;86.4012;20.1002;69.0042;291.1388;1.2272E-5;5.4E-7;0;Iridium
14.3421727;0.0002176;86.4013;19.8962;68.9797;291.1631;1.1873E-5;5.3E-7;0;Iridium
14.34217316;0.0002152;86.4014;19.6923;68.9987;291.1439;1.2266E-5;5.4E-7;0;Iridium
14.34217498;0.0002109;86.4015;19.2845;69.014;291.1282;1.7123E-5;6.8E-7;0;Iridium
14.34217554;0.000209;86.4015;19.0806;68.8548;291.2871;1.7397E-5;6.8E-7;0;Iridium
14.34217649;0.0002068;86.4016;18.8474;68.6388;291.5028;2.0245E-5;7.6E-7;0;Iridium
14.34217649;0.0002068;86.4016;18.8474;68.6388;291.5028;2.0245E-5;7.6E-7;0;Iridium
14.34217631;0.0002051;86.4016;18.6145;69.1228;291.0187;1.7847E-5;7.0E-7;0;Iridium
14.34217685;0.0002032;86.4017;18.4397;69.068;291.0733;1.9897E-5;7.5E-7;0;Iridium
14.34217714;0.0002015;86.4018;18.2067;69.2068;290.9343;1.9321E-5;7.4E-7;0;Iridium
14.3421776;0.0001981;86.4019;17.7696;69.3974;290.7434;1.7979E-5;7.0E-7;0;Iridium
14.34217854;0.0001969;86.4019;17.5075;69.456;290.6847;2.0533E-5;7.7E-7;0;Iridium
14.34217854;0.0001969;86.4019;17.5075;69.456;290.6847;2.0533E-5;7.7E-7;0;Iridium
14.34217909;0.000197;86.4019;17.391;69.293;290.8476;2.1978E-5;8.1E-7;0;Iridium
14.34218026;0.0001959;86.4019;17.0997;69.1589;290.9816;2.507E-5;9.0E-7;0;Iridium
14.34218054;0.0001943;86.4019;16.9249;69.2312;290.9091;2.3086E-5;8.4E-7;0;Iridium
14.34218136;0.0001921;86.4019;16.6919;69.4462;290.694;2.3793E-5;8.6E-7;0;Iridium
14.34218201;0.0001901;86.402;16.5172;69.62;290.52;2.4119E-5;8.7E-7;0;Iridium
14.342182;0.0001882;86.402;16.2551;69.6925;290.4472;1.868E-5;7.2E-7;0;Iridium
14.342182;0.0001882;86.402;16.2551;69.6925;290.4472;1.868E-5;7.2E-7;0;Iridium
14.34218228;0.0001866;86.402;16.1094;69.9211;290.2185;1.7032E-5;6.7E-7;0;Iridium
14.34218263;0.0001848;86.402;15.8473;70.2367;289.9028;1.4925E-5;6.2E-7;0;Iridium
14.34218274;0.0001846;86.402;15.8182;70.2561;289.8834;1.5342E-5;6.3E-7;0;Iridium
14.34218296;0.0001834;86.402;15.7017;70.3525;289.7869;1.3734E-5;5.8E-7;0;Iridium
14.34218398;0.0001818;86.4021;15.4395;70.6196;289.5196;1.6929E-5;6.7E-7;0;Iridium
14.34218399;0.0001816;86.4021;15.4104;70.6153;289.5239;1.6411E-5;6.6E-7;0;Iridium
14.34218428;0.0001801;86.4021;15.2648;70.8266;289.3125;1.4591E-5;6.1E-7;0;Iridium
14.34218457;0.000179;86.4021;15.1483;70.9316;289.2073;1.4685E-5;6.1E-7;0;Iridium
14.34218534;0.0001766;86.4021;14.8862;71.2702;288.8685;1.4656E-5;6.1E-7;0;Iridium
14.3421865;0.0001744;86.4022;14.595;71.7164;288.4221;1.7134E-5;6.8E-7;0;Iridium
14.3421865;0.0001744;86.4022;14.595;71.7164;288.4221;1.7134E-5;6.8E-7;0;Iridium
14.34218642;0.0001735;86.4022;14.4494;72.0572;288.0813;1.4114E-5;5.9E-7;0;Iridium
14.34218753;0.0001717;86.4023;14.1872;72.6097;287.5287;1.6804E-5;6.7E-7;0;Iridium
14.34218808;0.0001707;86.4023;14.0125;72.9786;287.1597;1.8E-5;7.0E-7;0;Iridium
14.34218835;0.0001694;86.4023;13.7504;73.3319;286.8063;1.636E-5;6.6E-7;0;Iridium
14.34218835;0.0001694;86.4023;13.7504;73.3319;286.8063;1.636E-5;6.6E-7;0;Iridium
14.34218881;0.0001682;86.4023;13.6048;73.7682;286.3699;1.7033E-5;6.7E-7;0;Iridium
14.34218918;0.0001667;86.4023;13.3428;74.1369;286.001;1.6598E-5;6.6E-7;0;Iridium
14.34218963;0.0001655;86.4023;13.1971;74.7659;285.372;1.7239E-5;6.8E-7;0;Iridium
14.3421897;0.0001648;86.4023;12.9059;75.1056;285.0322;1.4442E-5;6.0E-7;0;Iridium
14.34219022;0.0001636;86.4023;12.7603;75.594;284.5437;1.6308E-5;6.5E-7;0;Iridium
14.34219145;0.0001625;86.4023;12.4982;76.0411;284.0966;2.165E-5;8.0E-7;0;Iridium
14.34219158;0.0001622;86.4023;12.4691;76.1045;284.0331;2.1928E-5;8.1E-7;0;Iridium
14.34219234;0.0001615;86.4023;12.3526;76.4881;283.6495;2.4635E-5;8.9E-7;0;Iridium
14.34219374;0.0001606;86.4023;12.0905;77.1196;283.0179;2.9552E-5;1.03E-6;0;Iridium
14.34219382;0.0001606;86.4023;12.0614;77.2558;282.8817;2.9965E-5;1.04E-6;0;Iridium
14.34219417;0.0001599;86.4023;11.9449;77.5222;282.6153;2.8735E-5;1.0E-6;0;Iridium
14.34219448;0.0001594;86.4023;11.8575;77.8437;282.2937;2.9527E-5;1.02E-6;0;Iridium
14.34219514;0.0001589;86.4022;11.508;78.825;281.3125;2.4854E-5;8.9E-7;0;Iridium
14.34219559;0.0001581;86.4022;11.3915;79.1353;281.0021;2.5391E-5;9.1E-7;0;Iridium
14.3421959;0.0001578;86.4022;11.3624;79.2619;280.8755;2.7174E-5;9.6E-7;0;Iridium
14.34219658;0.0001572;86.4021;11.1294;79.8914;280.2459;2.5561E-5;9.1E-7;0;Iridium
14.34219724;0.0001562;86.4021;10.9547;80.3718;279.7654;2.6259E-5;9.3E-7;0;Iridium
14.34219835;0.0001556;86.4021;10.7217;81.0411;279.0961;2.7547E-5;9.7E-7;0;Iridium
14.34219858;0.0001545;86.4021;10.5178;81.4336;278.7035;2.4293E-5;8.8E-7;0;Iridium
14.34219858;0.0001545;86.4021;10.5178;81.4336;278.7035;2.4293E-5;8.8E-7;0;Iridium
14.34220046;0.000153;86.402;10.1101;82.7548;277.3822;2.5119E-5;9.0E-7;0;Iridium
14.34220108;0.0001528;86.402;9.8771;83.5614;276.5755;2.2764E-5;8.4E-7;0;Iridium
14.34220285;0.000152;86.4019;9.5276;84.5788;275.5581;2.4862E-5;8.9E-7;0;Iridium
14.34220298;0.0001519;86.4019;9.4694;84.7293;275.4076;2.3868E-5;8.7E-7;0;Iridium
14.34220452;0.0001515;86.4019;9.0907;86.1824;273.9545;2.3932E-5;8.7E-7;0;Iridium
14.34220447;0.0001517;86.4019;9.0616;86.4123;273.7246;2.3041E-5;8.4E-7;0;Iridium
14.34220567;0.0001527;86.4019;8.683;88.1227;272.0143;2.288E-5;8.4E-7;0;Iridium
14.34220564;0.0001529;86.4018;8.6248;88.4993;271.6377;2.1621E-5;8.0E-7;0;Iridium
14.34220598;0.0001533;86.4017;8.45;88.3757;271.7615;2.057E-5;7.7E-7;0;Iridium
14.34220664;0.0001541;86.4017;8.2461;89.073;271.0642;2.0329E-5;7.7E-7;0;Iridium
14.34220716;0.000154;86.4017;8.0422;89.7939;270.3434;2.0692E-5;7.8E-7;0;Iridium
14.34220752;0.0001547;86.4016;7.8091;89.8642;270.2731;1.9318E-5;7.4E-7;0;Iridium
14.34220877;0.0001564;86.4016;7.3721;91.6854;268.4521;2.0808E-5;7.8E-7;0;Iridium
14.34220924;0.0001566;86.4015;7.1974;92.5332;267.6043;2.1744E-5;8.1E-7;0;Iridium
14.34216001;0.0001616;86.4014;6.7892;91.9035;268.2346;2.3373E-5;8.5E-7;0;Iridium
14.34216097;0.0001628;86.4014;6.5563;92.7375;267.4007;1.7139E-5;6.8E-7;0;Iridium
14.34216081;0.0001628;86.4013;6.3523;93.2739;266.8643;1.1165E-5;5.1E-7;0;Iridium
14.34216105;0.0001632;86.4013;6.2067;93.557;266.5812;1.2249E-5;5.4E-7;0;Iridium
14.34216116;0.0001633;86.4013;6.1484;93.6507;266.4875;1.1809E-5;5.3E-7;0;Iridium
14.34216285;0.0001657;86.4012;5.7697;95.6377;264.5008;1.9013E-5;7.3E-7;0;Iridium
14.34216248;0.0001664;86.4012;5.7115;95.9789;264.1597;1.5179E-5;6.2E-7;0;Iridium
14.34216476;0.0001684;86.401;5.3328;96.6738;263.4649;2.2936E-5;8.4E-7;0;Iridium
14.34216486;0.0001685;86.401;5.3037;96.7308;263.408;2.3081E-5;8.4E-7;0;Iridium
14.3421664;0.0001699;86.4008;4.9541;97.4361;262.7028;2.4804E-5;8.9E-7;0;Iridium
14.3421664;0.0001699;86.4008;4.9541;97.4361;262.7028;2.4804E-5;8.9E-7;0;Iridium
14.34216649;0.0001702;86.4008;4.8959;97.5359;262.603;2.3397E-5;8.5E-7;0;Iridium
14.3421672;0.0001708;86.4008;4.6919;97.9653;262.1736;2.3264E-5;8.5E-7;0;Iridium
14.34216863;0.0001726;86.4006;4.284;98.9139;261.2253;2.205E-5;8.2E-7;0;Iridium
14.34216863;0.0001726;86.4006;4.284;98.9139;261.2253;2.205E-5;8.2E-7;0;Iridium
14.34216894;0.0001747;86.4006;4.0509;99.4902;260.6491;1.9523E-5;7.4E-7;0;Iridium
14.34216974;0.0001764;86.4005;3.8469;100.107;260.0325;2.0391E-5;7.7E-7;0;Iridium
14.34217004;0.0001783;86.4005;3.6721;100.4319;259.7078;1.8797E-5;7.2E-7;0;Iridium
14.34216982;0.0001792;86.4005;3.6138;100.4299;259.7099;1.7427E-5;6.9E-7;0;Iridium
14.3421705;0.0001816;86.4004;3.2932;100.9317;259.2083;1.6411E-5;6.6E-7;0;Iridium
14.34217023;0.0001826;86.4004;3.2059;101.1441;258.996;1.3716E-5;5.8E-7;0;Iridium
14.34217076;0.000184;86.4004;3.0019;101.227;258.9133;1.4404E-5;6.0E-7;0;Iridium
14.34217114;0.0001854;86.4003;2.7979;101.4662;258.6742;1.4155E-5;5.9E-7;0;Iridium
14.3421723;0.0001885;86.4002;2.4191;101.6778;258.463;1.5979E-5;6.5E-7;0;Iridium
14.3421731;0.0001897;86.4002;2.2151;101.563;258.5778;1.8566E-5;7.2E-7;0;Iridium
14.34217392;0.0001919;86.4001;1.9819;101.7112;258.4299;1.989E-5;7.5E-7;0;Iridium
14.34217499;0.000194;86.4;1.6322;101.6456;258.4957;2.2319E-5;8.2E-7;0;Iridium
14.34217522;0.0001952;86.3999;1.4865;101.8373;258.3041;2.259E-5;8.3E-7;0;Iridium
14.34217593;0.0001958;86.3999;1.3699;101.9913;258.1503;2.4148E-5;8.7E-7;0;Iridium
14.34217656;0.0001975;86.3998;1.195;102.1525;257.9892;2.53E-5;9.1E-7;0;Iridium
14.34217659;0.0001981;86.3998;1.1367;102.2306;257.9112;2.4724E-5;8.9E-7;0;Iridium
14.34217699;0.0001992;86.3997;0.9618;102.27;257.8719;2.4611E-5;8.9E-7;0;Iridium
14.34217751;0.0002009;86.3996;0.7869;102.3584;257.7837;2.5063E-5;9.0E-7;0;Iridium
14.34217751;0.0002017;86.3995;0.7286;102.4275;257.7146;2.3976E-5;8.7E-7;0;Iridium
14.34217856;0.0002045;86.3994;0.3788;102.3367;257.8058;2.4768E-5;8.9E-7;0;Iridium
14.34217856;0.0002045;86.3994;0.3788;102.3367;257.8058;2.4768E-5;8.9E-7;0;Iridium
14.34217856;0.0002045;86.3994;0.3788;102.3367;257.8058;2.4768E-5;8.9E-7;0;Iridium
14.34217868;0.0002053;86.3994;0.3205;102.4207;257.7219;2.3986E-5;8.7E-7;0;Iridium
14.34217977;0.000209;86.3992;359.9124;102.643;257.5;2.2765E-5;8.4E-7;0;Iridium
14.34218083;0.0002113;86.3991;359.7084;102.8398;257.3034;2.4659E-5;8.9E-7;0;Iridium
14.3421815;0.0002137;86.399;359.4752;102.8706;257.2728;2.3287E-5;8.5E-7;0;Iridium
14.34218306;0.0002168;86.3989;359.1254;102.7773;257.3665;2.4084E-5;8.7E-7;0;Iridium
14.34218306;0.0002168;86.3989;359.1254;102.7773;257.3665;2.4084E-5;8.7E-7;0;Iridium
14.34218318;0.0002179;86.3989;359.0379;102.772;257.372;2.2921E-5;8.4E-7;0;Iridium
14.34218426;0.0002214;86.3987;358.6298;102.6467;257.4977;2.0013E-5;7.6E-7;0;Iridium
